CTC1_L_00239016-03
1 81335U 24194BG  26070.40834491  .00000000  00000+0  00000-0 0  9997
2 81335  80.0000 180.0000 0000000   0.0000   0.0000 15.59190035    18
CTC1_L_00239016-04
1 81336U 25351QZ  26070.40834491  .00000000  00000+0  00000-0 0  9994
2 81336  80.0000 180.0000 0000000   0.0000  90.0000 15.59190035    18
CTC1_L_00239017-01
1 81337U 24608IC  26070.40834491  .00000000  00000+0  00000-0 0  9999
2 81337  80.0000 192.0000 0000000   0.0000 192.0000 15.59190035    15
CTC1_L_00239017-02
1 81338U 23196XU  26070.40834491  .00000000  00000+0  00000-0 0  9991
2 81338  80.0000 192.0000 0000000   0.0000 282.0000 15.59190035    16
CTC1_L_00239017-03
1 81339U 25450VC  26070.40834491  .00000000  00000+0  00000-0 0  9997
2 81339  80.0000 192.0000 0000000   0.0000  12.0000 15.59190035    18
CTC1_L_00239017-04
1 81340U 24274HR  26070.40834491  .00000000  00000+0  00000-0 0  9992
2 81340  80.0000 192.0000 0000000   0.0000 102.0000 15.59190035    10
CTC1_L_00239018-01
1 81341U 23212PN  26070.40834491  .00000000  00000+0  00000-0 0  9994
2 81341  80.0000 204.0000 0000000   0.0000 204.0000 15.59190035    18
CTC1_L_00239018-02
1 81342U 22839QR  26070.40834491  .00000000  00000+0  00000-0 0  9999
2 81342  80.0000 204.0000 0000000   0.0000 294.0000 15.59190035    18
CTC1_L_00239018-03
1 81343U 24777XA  26070.40834491  .00000000  00000+0  00000-0 0  9993
2 81343  80.0000 204.0000 0000000   0.0000  24.0000 15.59190035    10
CTC1_L_00239018-04
1 81344U 23853BZ  26070.40834491  .00000000  00000+0  00000-0 0  9998
2 81344  80.0000 204.0000 0000000   0.0000 114.0000 15.59190035    11
CTC1_L_00239019-01
1 81345U 23569HV  26070.40834491  .00000000  00000+0  00000-0 0  9993
2 81345  80.0000 216.0000 0000000   0.0000 216.0000 15.59190035    18
CTC1_L_00239019-02
1 81346U 24645PR  26070.40834491  .00000000  00000+0  00000-0 0  9990
2 81346  80.0000 216.0000 0000000   0.0000 306.0000 15.59190035    19
CTC1_L_00239019-03
1 81347U 23312UU  26070.40834491  .00000000  00000+0  00000-0 0  9991
2 81347  80.0000 216.0000 0000000   0.0000  36.0000 15.59190035    10
CTC1_L_00239019-04
1 81348U 24766EB  26070.40834491  .00000000  00000+0  00000-0 0  9996
2 81348  80.0000 216.0000 0000000   0.0000 126.0000 15.59190035    11
CTC1_L_00239020-01
1 81349U 23488SG  26070.40834491  .00000000  00000+0  00000-0 0  9997
2 81349  80.0000 228.0000 0000000   0.0000 228.0000 15.59190035    18
CTC1_L_00239020-02
1 81350U 23030GC  26070.40834491  .00000000  00000+0  00000-0 0  9992
2 81350  80.0000 228.0000 0000000   0.0000 318.0000 15.59190035    10
CTC1_L_00239020-03
1 81351U 25219OY  26070.40834491  .00000000  00000+0  00000-0 0  9994
2 81351  80.0000 228.0000 0000000   0.0000  48.0000 15.59190035    11
CTC1_L_00239020-04
1 81352U 25280HX  26070.40834491  .00000000  00000+0  00000-0 0  9993
2 81352  80.0000 228.0000 0000000   0.0000 138.0000 15.59190035    12
CTC1_L_00239021-01
1 81353U 25900CQ  26070.40834491  .00000000  00000+0  00000-0 0  9993
2 81353  80.0000 240.0000 0000000   0.0000 240.0000 15.59190035    11
CTC1_L_00239021-02
1 81354U 24277P   26070.40834491  .00000000  00000+0  00000-0 0  9990
2 81354  80.0000 240.0000 0000000   0.0000 330.0000 15.59190035    12
CTC1_L_00239021-03
1 81355U 23317EF  26070.40834491  .00000000  00000+0  00000-0 0  9995
2 81355  80.0000 240.0000 0000000   0.0000  60.0000 15.59190035    13
CTC1_L_00239021-04
1 81356U 26155OS  26070.40834491  .00000000  00000+0  00000-0 0  9999
2 81356  80.0000 240.0000 0000000   0.0000 150.0000 15.59190035    14
CTC1_L_00239022-01
1 81357U 23487VE  26070.40834491  .00000000  00000+0  00000-0 0  9995
2 81357  80.0000 252.0000 0000000   0.0000 252.0000 15.59190035    11
CTC1_L_00239022-02
1 81358U 22379ZK  26070.40834491  .00000000  00000+0  00000-0 0  9995
2 81358  80.0000 252.0000 0000000   0.0000 342.0000 15.59190035    12
CTC1_L_00239022-03
1 81359U 25323RV  26070.40834491  .00000000  00000+0  00000-0 0  9998
2 81359  80.0000 252.0000 0000000   0.0000  72.0000 15.59190035    13
CTC1_L_00239022-04
1 81360U 22664VX  26070.40834491  .00000000  00000+0  00000-0 0  9995
2 81360  80.0000 252.0000 0000000   0.0000 162.0000 15.59190035    15
CTC1_L_00239023-01
1 81361U 26212MB  26070.40834491  .00000000  00000+0  00000-0 0  9999
2 81361  80.0000 264.0000 0000000   0.0000 264.0000 15.59190035    12
CTC1_L_00239023-02
1 81362U 25472FV  26070.40834491  .00000000  00000+0  00000-0 0  9997
2 81362  80.0000 264.0000 0000000   0.0000 354.0000 15.59190035    13
CTC1_L_00239023-03
1 81363U 25925NX  26070.40834491  .00000000  00000+0  00000-0 0  9991
2 81363  80.0000 264.0000 0000000   0.0000  84.0000 15.59190035    14
CTC1_L_00239023-04
1 81364U 24477JH  26070.40834491  .00000000  00000+0  00000-0 0  9993
2 81364  80.0000 264.0000 0000000   0.0000 174.0000 15.59190035    15
CTC1_L_00239024-01
1 81365U 23539PD  26070.40834491  .00000000  00000+0  00000-0 0  9992
2 81365  80.0000 276.0000 0000000   0.0000 276.0000 15.59190035    12
CTC1_L_00239024-02
1 81366U 22294MK  26070.40834491  .00000000  00000+0  00000-0 0  9990
2 81366  80.0000 276.0000 0000000   0.0000   6.0000 15.59190035    14
CTC1_L_00239024-03
1 81367U 22834VS  26070.40834491  .00000000  00000+0  00000-0 0  9991
2 81367  80.0000 276.0000 0000000   0.0000  96.0000 15.59190035    14
CTC1_L_00239024-04
1 81368U 26322TT  26070.40834491  .00000000  00000+0  00000-0 0  9998
2 81368  80.0000 276.0000 0000000   0.0000 186.0000 15.59190035    15
CTC1_L_00239025-01
1 81369U 23589TB  26070.40834491  .00000000  00000+0  00000-0 0  9991
2 81369  80.0000 288.0000 0000000   0.0000 288.0000 15.59190035    12
CTC1_L_00239025-02
1 81370U 25051PA  26070.40834491  .00000000  00000+0  00000-0 0  9999
2 81370  80.0000 288.0000 0000000   0.0000  18.0000 15.59190035    15
CTC1_L_00239025-03
1 81371U 23386LV  26070.40834491  .00000000  00000+0  00000-0 0  9999
2 81371  80.0000 288.0000 0000000   0.0000 108.0000 15.59190035    16
CTC1_L_00239025-04
1 81372U 22796GK  26070.40834491  .00000000  00000+0  00000-0 0  9994
2 81372  80.0000 288.0000 0000000   0.0000 198.0000 15.59190035    16
CTC1_L_00239026-01
1 81373U 22634RL  26070.40834491  .00000000  00000+0  00000-0 0  9996
2 81373  80.0000 300.0000 0000000   0.0000 300.0000 15.59190035    17
CTC1_L_00239026-02
1 81374U 24908WJ  26070.40834491  .00000000  00000+0  00000-0 0  9993
2 81374  80.0000 300.0000 0000000   0.0000  30.0000 15.59190035    18
CTC1_L_00239026-03
1 81375U 24185TE  26070.40834491  .00000000  00000+0  00000-0 0  9991
2 81375  80.0000 300.0000 0000000   0.0000 120.0000 15.59190035    19
CTC1_L_00239026-04
1 81376U 24633CY  26070.40834491  .00000000  00000+0  00000-0 0  9990
2 81376  80.0000 300.0000 0000000   0.0000 210.0000 15.59190035    10
CTC1_L_00239027-01
1 81377U 24636OD  26070.40834491  .00000000  00000+0  00000-0 0  9994
2 81377  80.0000 312.0000 0000000   0.0000 312.0000 15.59190035    17
CTC1_L_00239027-02
1 81378U 23130IJ  26070.40834491  .00000000  00000+0  00000-0 0  9993
2 81378  80.0000 312.0000 0000000   0.0000  42.0000 15.59190035    18
CTC1_L_00239027-03
1 81379U 22098MR  26070.40834491  .00000000  00000+0  00000-0 0  9996
2 81379  80.0000 312.0000 0000000   0.0000 132.0000 15.59190035    19
CTC1_L_00239027-04
1 81380U 25740OQ  26070.40834491  .00000000  00000+0  00000-0 0  9995
2 81380  80.0000 312.0000 0000000   0.0000 222.0000 15.59190035    11
CTC1_L_00239028-01
1 81381U 26414JR  26070.40834491  .00000000  00000+0  00000-0 0  9995
2 81381  80.0000 324.0000 0000000   0.0000 324.0000 15.59190035    18
CTC1_L_00239028-02
1 81382U 25361LJ  26070.40834491  .00000000  00000+0  00000-0 0  9996
2 81382  80.0000 324.0000 0000000   0.0000  54.0000 15.59190035    19
CTC1_L_00239028-03
1 81383U 25170GS  26070.40834491  .00000000  00000+0  00000-0 0  9995
2 81383  80.0000 324.0000 0000000   0.0000 144.0000 15.59190035    10
CTC1_L_00239028-04
1 81384U 26680YA  26070.40834491  .00000000  00000+0  00000-0 0  9993
2 81384  80.0000 324.0000 0000000   0.0000 234.0000 15.59190035    11
CTC1_L_00239029-01
1 81385U 23106ED  26070.40834491  .00000000  00000+0  00000-0 0  9994
2 81385  80.0000 336.0000 0000000   0.0000 336.0000 15.59190035    18
CTC1_L_00239029-02
1 81386U 26145JQ  26070.40834491  .00000000  00000+0  00000-0 0  9991
2 81386  80.0000 336.0000 0000000   0.0000  66.0000 15.59190035    19
CTC1_L_00239029-03
1 81387U 24923SI  26070.40834491  .00000000  00000+0  00000-0 0  9994
2 81387  80.0000 336.0000 0000000   0.0000 156.0000 15.59190035    10
CTC1_L_00239029-04
1 81388U 22878PC  26070.40834491  .00000000  00000+0  00000-0 0  9992
2 81388  80.0000 336.0000 0000000   0.0000 246.0000 15.59190035    11
CTC1_L_00239030-01
1 81389U 26328HF  26070.40834491  .00000000  00000+0  00000-0 0  9997
2 81389  80.0000 348.0000 0000000   0.0000 348.0000 15.59190035    18
CTC1_L_00239030-02
1 81390U 25569LC  26070.40834491  .00000000  00000+0  00000-0 0  9995
2 81390  80.0000 348.0000 0000000   0.0000  78.0000 15.59190035    10
CTC1_L_00239030-03
1 81391U 26774LU  26070.40834491  .00000000  00000+0  00000-0 0  9995
2 81391  80.0000 348.0000 0000000   0.0000 168.0000 15.59190035    11
CTC1_L_00239030-04
1 81392U 25461GU  26070.40834491  .00000000  00000+0  00000-0 0  9998
2 81392  80.0000 348.0000 0000000   0.0000 258.0000 15.59190035    12
